[
  {
    "id": 1,
    "name": "CLAVEL",
    "address": "225-227 W 23RD ST",
    "zipcode": "21211",
    "city": "Baltimore",
    "state": "MD",
    "star_rating": null,
    "last_inspection": "11/04/2025",
    "violations": []
  },
  {
    "id": 2,
    "name": "THAMES STREET OYSTER HOUSE",
    "address": "1728 THAMES ST",
    "zipcode": "21231",
    "city": "Baltimore",
    "state": "MD",
    "star_rating": null,
    "last_inspection": "07/11/2025",
    "violations": []
  },
  {
    "id": 3,
    "name": "THE CHARMERY",
    "address": "1700 W 41ST ST",
    "zipcode": "21211",
    "city": "Baltimore",
    "state": "MD",
    "star_rating": null,
    "last_inspection": "12/08/2025",
    "violations": []
  },
  {
    "id": 4,
    "name": "THE HELMAND RESTAURANT",
    "address": "806 N CHARLES ST",
    "zipcode": "21201",
    "city": "Baltimore",
    "state": "MD",
    "star_rating": null,
    "last_inspection": "11/13/2025",
    "violations": []
  },
  {
    "id": 5,
    "name": "RED EMMA'S BOOKSTORE COFFEEHOUSE",
    "address": "3128 GREENMOUNT AVE",
    "zipcode": "21218",
    "city": "Baltimore",
    "state": "MD",
    "star_rating": null,
    "last_inspection": "12/02/2025",
    "violations": []
  },
  {
    "id": 6,
    "name": "GRANO PASTA BAR",
    "address": "1031 W 36TH ST",
    "zipcode": "21211",
    "city": "Baltimore",
    "state": "MD",
    "star_rating": null,
    "last_inspection": "12/30/2025",
    "violations": []
  },
  {
    "id": 7,
    "name": "PETE'S GRILLE",
    "address": "3130 GREENMOUNT AVE",
    "zipcode": "21218",
    "city": "Baltimore",
    "state": "MD",
    "star_rating": null,
    "last_inspection": "12/23/2025",
    "violations": []
  },
  {
    "id": 8,
    "name": "MATSURI RESTAURANT",
    "address": "1105 S CHARLES ST",
    "zipcode": "21230",
    "city": "Baltimore",
    "state": "MD",
    "star_rating": null,
    "last_inspection": "10/30/2025",
    "violations": []
  },
  {
    "id": 9,
    "name": "ABBEY BURGER BISTRO",
    "address": "1041 MARSHALL ST",
    "zipcode": "21230",
    "city": "Baltimore",
    "state": "MD",
    "star_rating": null,
    "last_inspection": "10/20/2025",
    "violations": []
  },
  {
    "id": 10,
    "name": "WILEY GUNTERS",
    "address": "823 E FORT AVE",
    "zipcode": "21230",
    "city": "Baltimore",
    "state": "MD",
    "star_rating": null,
    "last_inspection": "12/18/2025",
    "violations": []
  },
  {
    "id": 11,
    "name": "VACCARO'S ITALIAN PASTRY SHOP, INC.",
    "address": "2919 O'DONNELL ST",
    "zipcode": "21202",
    "city": "Baltimore",
    "state": "MD",
    "star_rating": null,
    "last_inspection": "10/22/2025",
    "violations": []
  },
  {
    "id": 12,
    "name": "LA TAVOLA",
    "address": "248 ALBEMARLE ST",
    "zipcode": "21202",
    "city": "Baltimore",
    "state": "MD",
    "star_rating": null,
    "last_inspection": "08/15/2025",
    "violations": []
  },
  {
    "id": 13,
    "name": "AMICCI'S, INC.",
    "address": "231 S HIGH ST",
    "zipcode": "21202",
    "city": "Baltimore",
    "state": "MD",
    "star_rating": null,
    "last_inspection": "09/16/2025",
    "violations": []
  },
  {
    "id": 14,
    "name": "CHARLESTON",
    "address": "1000 LANCASTER ST",
    "zipcode": "21202",
    "city": "Baltimore",
    "state": "MD",
    "star_rating": null,
    "last_inspection": "02/06/2025",
    "violations": []
  },
  {
    "id": 15,
    "name": "AZUMI",
    "address": "725 ALICEANNA ST",
    "zipcode": "21202",
    "city": "Baltimore",
    "state": "MD",
    "star_rating": null,
    "last_inspection": "08/01/2025",
    "violations": []
  },
  {
    "id": 16,
    "name": "IRON ROOSTER CANTON",
    "address": "3721 BOSTON ST",
    "zipcode": "21224",
    "city": "Baltimore",
    "state": "MD",
    "star_rating": null,
    "last_inspection": "01/15/2026",
    "violations": []
  },
  {
    "id": 17,
    "name": "PHILLIPS SEAFOOD-MAIN RESTAURANT KITCHEN",
    "address": "601 E PRATT ST",
    "zipcode": "21202",
    "city": "Baltimore",
    "state": "MD",
    "star_rating": null,
    "last_inspection": "07/01/2025",
    "violations": []
  },
  {
    "id": 18,
    "name": "SLAINTE IRISH PUB & RESTAURANT",
    "address": "1700 THAMES ST",
    "zipcode": "21231",
    "city": "Baltimore",
    "state": "MD",
    "star_rating": null,
    "last_inspection": "09/17/2025",
    "violations": []
  },
  {
    "id": 19,
    "name": "BARCOCINA",
    "address": "1629 THAMES ST",
    "zipcode": "21231",
    "city": "Baltimore",
    "state": "MD",
    "star_rating": null,
    "last_inspection": "03/18/2025",
    "violations": []
  },
  {
    "id": 20,
    "name": "CHIAPPARELLI'S RESTAURANT",
    "address": "237 S HIGH ST",
    "zipcode": "21202",
    "city": "Baltimore",
    "state": "MD",
    "star_rating": null,
    "last_inspection": "07/16/2025",
    "violations": []
  },
  {
    "id": 21,
    "name": "DMV EMPANADAS @ CROSS STREET MARKET",
    "address": "1065 S CHARLES ST - STALL #140",
    "zipcode": "21230",
    "city": "Baltimore",
    "state": "MD",
    "star_rating": null,
    "last_inspection": "12/09/2025",
    "violations": []
  },
  {
    "id": 22,
    "name": "THE CAPITAL GRILLE #8023",
    "address": "500 E PRATT ST",
    "zipcode": "21202",
    "city": "Baltimore",
    "state": "MD",
    "star_rating": null,
    "last_inspection": "12/11/2025",
    "violations": []
  },
  {
    "id": 23,
    "name": "OUZO BAY",
    "address": "1000 LANCASTER ST",
    "zipcode": "21202",
    "city": "Baltimore",
    "state": "MD",
    "star_rating": null,
    "last_inspection": "05/15/2025",
    "violations": []
  },
  {
    "id": 24,
    "name": "CINGHIALE",
    "address": "822 LANCASTER ST",
    "zipcode": "21202",
    "city": "Baltimore",
    "state": "MD",
    "star_rating": null,
    "last_inspection": "08/20/2025",
    "violations": []
  },
  {
    "id": 25,
    "name": "THE BREWER'S ART",
    "address": "1106 N CHARLES ST",
    "zipcode": "21201",
    "city": "Baltimore",
    "state": "MD",
    "star_rating": null,
    "last_inspection": "05/31/2024",
    "violations": []
  },
  {
    "id": 26,
    "name": "DOOBY'S COFFEE",
    "address": "800 N CHARLES ST",
    "zipcode": "21201",
    "city": "Baltimore",
    "state": "MD",
    "star_rating": null,
    "last_inspection": "10/03/2025",
    "violations": []
  },
  {
    "id": 27,
    "name": "DYLAN'S OYSTER CELLAR",
    "address": "3601 CHESTNUT AVE",
    "zipcode": "21211",
    "city": "Baltimore",
    "state": "MD",
    "star_rating": null,
    "last_inspection": "09/23/2025",
    "violations": []
  },
  {
    "id": 28,
    "name": "THE WINE SOURCE",
    "address": "3601 ELM AVE",
    "zipcode": "21211",
    "city": "Baltimore",
    "state": "MD",
    "star_rating": null,
    "last_inspection": "01/06/2026",
    "violations": []
  },
  {
    "id": 29,
    "name": "MICHAEL'S STEAK & LOBSTER HOUSE",
    "address": "6207 EASTERN AVE",
    "zipcode": "21224",
    "city": "Baltimore",
    "state": "MD",
    "star_rating": null,
    "last_inspection": "05/22/2025",
    "violations": []
  },
  {
    "id": 30,
    "name": "SOPHOMORE COFFEE",
    "address": "2223 MARYLAND AVE - UNIT BNS",
    "zipcode": "21218",
    "city": "Baltimore",
    "state": "MD",
    "star_rating": null,
    "last_inspection": "08/08/2025",
    "violations": []
  },
  {
    "id": 31,
    "name": "NICK'S FISH HOUSE",
    "address": "2600 INSULATOR DR",
    "zipcode": "21230",
    "city": "Baltimore",
    "state": "MD",
    "star_rating": null,
    "last_inspection": "09/03/2025",
    "violations": []
  },
  {
    "id": 32,
    "name": "CHIPOTLE MEXICAN GRILL #0835",
    "address": "3201 ST. PAUL ST",
    "zipcode": "21218",
    "city": "Baltimore",
    "state": "MD",
    "star_rating": null,
    "last_inspection": "11/07/2025",
    "violations": []
  },
  {
    "id": 33,
    "name": "THE CHEESECAKE FACTORY",
    "address": "201 E PRATT ST",
    "zipcode": "21202",
    "city": "Baltimore",
    "state": "MD",
    "star_rating": null,
    "last_inspection": "07/09/2025",
    "violations": []
  },
  {
    "id": 34,
    "name": "HERSH'S PIZZA & DRINKS",
    "address": "1843 LIGHT ST",
    "zipcode": "21230",
    "city": "Baltimore",
    "state": "MD",
    "star_rating": null,
    "last_inspection": "10/15/2024",
    "violations": []
  },
  {
    "id": 35,
    "name": "GOLDEN WEST CAF\u00c9, INC.",
    "address": "1105 W 36TH ST",
    "zipcode": "21211",
    "city": "Baltimore",
    "state": "MD",
    "star_rating": null,
    "last_inspection": "10/28/2025",
    "violations": []
  },
  {
    "id": 36,
    "name": "RUSTY SCUPPER",
    "address": "402 KEY HWY",
    "zipcode": "21230",
    "city": "Baltimore",
    "state": "MD",
    "star_rating": null,
    "last_inspection": "01/03/2025",
    "violations": []
  }
]